OBJECT_NAME,OBJECT_ID,EPOCH,MEAN_MOTION,ECCENTRICITY,INCLINATION,RA_OF_ASC_NODE,ARG_OF_PERICENTER,MEAN_ANOMALY,EPHEMERIS_TYPE,CLASSIFICATION_TYPE,NORAD_CAT_ID,ELEMENT_SET_NO,REV_AT_EPOCH,BSTAR,MEAN_MOTION_DOT,MEAN_MOTION_DDOT
STARLINK-37398,2026-117M,2026-06-13T13:29:48.786144,15.80943649,.0001136,53.1593,261.5930,105.5989,254.5159,0,U,69249,999,240,.12648842E-2,.257368E-2,0
STARLINK-37499,2026-117N,2026-06-13T13:24:48.612672,15.82053238,.00012744,53.1590,261.5695,126.9379,233.1761,0,U,69250,999,240,.11978176E-2,.256527E-2,0
STARLINK-37489,2026-117P,2026-06-13T13:22:16.550400,15.82050599,.0000888,53.1591,261.5572,104.7525,255.3597,0,U,69251,999,240,.11389437E-2,.243485E-2,0
STARLINK-37434,2026-117Q,2026-06-13T13:17:59.882784,15.82053305,.00009373,53.1587,261.5373,70.0704,290.0420,0,U,69252,999,240,.11739514E-2,.25125E-2,0
STARLINK-37368,2026-117R,2026-06-13T13:08:17.035296,15.82048292,.00010028,53.1588,261.4915,61.6544,298.4580,0,U,69253,999,240,.10770691E-2,.229826E-2,0
STARLINK-37378,2026-117T,2026-06-13T13:05:54.838176,15.82040507,.00011354,53.1588,261.4804,102.2463,257.8687,0,U,69255,999,240,.11402027E-2,.243643E-2,0
STARLINK-37396,2026-117U,2026-06-13T14:33:21.121344,15.82056927,.00010604,53.1582,261.1457,95.2208,264.8936,0,U,69256,999,241,.11790475E-2,.25242E-2,0
STARLINK-37508,2026-117V,2026-06-13T14:00:01.999872,15.80912711,.0001446,53.1590,261.2577,59.0055,171.4735,0,U,69257,999,358,-.60958798E-4,-.12736E-3,0
STARLINK-37276,2026-117W,2026-06-13T14:00:01.999872,15.80890769,.00013038,53.1586,260.9387,59.6130,324.3854,0,U,69258,999,358,-.31760202E-4,-.6968E-4,0
STARLINK-37518,2026-117X,2026-06-13T14:00:01.999872,15.80911421,.00012,53.1587,260.9541,96.2211,280.7675,0,U,69259,999,359,-.27571911E-3,-.54869E-3,0
STARLINK-37478,2026-117Y,2026-06-13T14:00:01.999872,15.80897084,.00012773,53.1591,260.9569,78.8033,296.9114,0,U,69260,999,359,-.1505623E-3,-.30345E-3,0
STARLINK-37506,2026-117Z,2026-06-13T14:00:01.999872,15.80910376,.00011431,53.1586,260.9507,78.8547,299.6277,0,U,69261,999,359,-.17801398E-3,-.35749E-3,0
STARLINK-37503,2026-117AA,2026-06-13T14:00:01.999872,15.80936198,.00011989,53.1589,260.9472,108.0769,271.8557,0,U,69262,999,359,-.32380391E-3,-.6432E-3,0
STARLINK-37502,2026-117AB,2026-06-13T14:00:01.999872,15.80940271,.00010088,53.1590,260.9406,83.2743,299.6023,0,U,69263,999,359,-.49262203E-3,-.9714E-3,0
STARLINK-37486,2026-117AC,2026-06-13T14:00:01.999872,15.80897310,.00011275,53.1582,260.9264,88.5918,301.2522,0,U,69264,999,359,-.19644402E-3,-.39338E-3,0
STARLINK-37435,2026-117AD,2026-06-13T14:00:01.999872,15.80931851,.00011387,53.1586,260.9432,97.9522,283.3820,0,U,69265,999,359,-.33054447E-3,-.65621E-3,0
STARLINK-37464,2026-117AE,2026-06-13T14:00:01.999872,15.82065751,.00012192,53.1580,260.9198,77.7624,314.4521,0,U,69266,999,359,-.414328E-3,-.86289E-3,0
KUIPER-00282,2026-118A,2026-06-13T13:48:10.743840,15.34756604,.00119843,51.8587,70.9635,167.3981,192.7306,0,U,69267,999,342,.74070802E-3,.25092E-3,0
KUIPER-00383,2026-118B,2026-06-13T13:43:50.689344,15.34659904,.00109783,51.8593,70.9438,167.9775,192.1475,0,U,69268,999,342,-.64961789E-3,-.22517E-3,0
KUIPER-00527,2026-118C,2026-06-13T13:38:36.406752,15.35025359,.00102424,51.8615,70.9230,163.2515,196.8811,0,U,69269,999,342,.624768E-3,.21264E-3,0
KUIPER-00562,2026-118D,2026-06-13T13:03:11.956896,15.38534894,.00018758,51.8730,70.7594,106.3620,253.7574,0,U,69270,999,342,.6982866E-3,.2668E-3,0
KUIPER-00570,2026-118E,2026-06-13T13:41:30.677280,15.35326931,.0012077,51.8578,70.9327,171.6460,188.4729,0,U,69271,999,342,.38224703E-3,.1298E-3,0
KUIPER-00572,2026-118F,2026-06-13T13:25:26.554368,15.36923668,.0007407,51.8675,70.8669,158.1874,201.9430,0,U,69272,999,342,.64772633E-3,.23452E-3,0
KUIPER-00581,2026-118G,2026-06-13T13:29:51.237312,15.36556257,.0008882,51.8655,70.8868,161.0937,199.0380,0,U,69273,999,351,.61412208E-3,.21954E-3,0
KUIPER-00584,2026-118H,2026-06-13T13:44:32.146656,15.35227966,.00116247,51.8609,70.9478,176.1354,183.9724,0,U,69274,999,342,.57471115E-3,.19663E-3,0
KUIPER-00587,2026-118J,2026-06-13T13:29:04.824960,15.36604806,.00081381,51.8629,70.8818,164.2215,195.9026,0,U,69275,999,342,.63776104E-3,.22849E-3,0
KUIPER-00590,2026-118K,2026-06-13T13:13:21.660096,15.37831796,.00043441,51.8692,70.8128,146.3122,213.8142,0,U,69276,999,342,.66459095E-3,.24792E-3,0
KUIPER-00592,2026-118L,2026-06-13T13:10:24.218688,15.38069398,.00036667,51.8713,70.7982,125.4602,234.6728,0,U,69277,999,342,.7022691E-3,.26429E-3,0
KUIPER-00593,2026-118M,2026-06-13T13:11:13.568640,15.37962386,.00040184,51.8721,70.8005,140.9302,219.1976,0,U,69278,999,348,.77140535E-3,.28978E-3,0
