{"updated_at":"2026-06-13T18:15:51.214023Z","count":200,"data":[{"NORAD_CAT_ID":"69255","OBJECT_NAME":"STARLINK-37378","OBJECT_ID":"2026-117T","EPOCH":"2026-06-13T13:05:54.838176","TLE_LINE1":"1 69255U 26117T   26164.54577359  .00243643  00000-0  11402-2 0  9990","TLE_LINE2":"2 69255  53.1588 261.4804 0001135 102.2463 257.8687 15.82040507  2403"},{"NORAD_CAT_ID":"69256","OBJECT_NAME":"STARLINK-37396","OBJECT_ID":"2026-117U","EPOCH":"2026-06-13T14:33:21.121344","TLE_LINE1":"1 69256U 26117U   26164.60649446  .00252420  00000-0  11790-2 0  9998","TLE_LINE2":"2 69256  53.1582 261.1457 0001060  95.2208 264.8936 15.82056927  2413"},{"NORAD_CAT_ID":"69249","OBJECT_NAME":"STARLINK-37398","OBJECT_ID":"2026-117M","EPOCH":"2026-06-13T13:29:48.786144","TLE_LINE1":"1 69249U 26117M   26164.56237021  .00257368  00000-0  12649-2 0  9997","TLE_LINE2":"2 69249  53.1593 261.5930 0001136 105.5989 254.5159 15.80943649  2408"},{"NORAD_CAT_ID":"69250","OBJECT_NAME":"STARLINK-37499","OBJECT_ID":"2026-177N","EPOCH":"2026-06-13T13:24:48.612672","TLE_LINE1":"1 69250U 26117N   26164.55889598  .00256527  00000-0  11978-2 0  9990","TLE_LINE2":"2 69250  53.1590 261.5695 0001274 126.9379 233.1761 15.82053238  2408"},{"NORAD_CAT_ID":"69251","OBJECT_NAME":"STARLINK-37489","OBJECT_ID":"2026-117P","EPOCH":"2026-06-13T13:22:16.550400","TLE_LINE1":"1 69251U 26117P   26164.55713600  .00243485  00000-0  11389-2 0  9996","TLE_LINE2":"2 69251  53.1591 261.5572 0000888 104.7525 255.3597 15.82050599  2401"},{"NORAD_CAT_ID":"69252","OBJECT_NAME":"STARLINK-37434","OBJECT_ID":"2026-117Q","EPOCH":"2026-06-13T13:17:59.882784","TLE_LINE1":"1 69252U 26117Q   26164.55416531  .00251250  00000-0  11740-2 0  9990","TLE_LINE2":"2 69252  53.1587 261.5373 0000937  70.0704 290.0420 15.82053305  2404"},{"NORAD_CAT_ID":"69253","OBJECT_NAME":"STARLINK-37368","OBJECT_ID":"2026-117R","EPOCH":"2026-06-13T13:08:17.035296","TLE_LINE1":"1 69253U 26117R   26164.54741939  .00229826  00000-0  10771-2 0  9990","TLE_LINE2":"2 69253  53.1588 261.4915 0001003  61.6544 298.4580 15.82048292  2408"},{"NORAD_CAT_ID":"69257","OBJECT_NAME":"STARLINK-37508","OBJECT_ID":"2026-117V","EPOCH":"2026-06-13T14:00:01.999872","TLE_LINE1":"1 69257U 26117V   26164.58335648 -.00012736  00000-0 -60959-4 0  9991","TLE_LINE2":"2 69257  53.1590 261.2577 0001446  59.0055 171.4735 15.80912711  3582"},{"NORAD_CAT_ID":"69258","OBJECT_NAME":"STARLINK-37276","OBJECT_ID":"2026-117W","EPOCH":"2026-06-13T14:00:01.999872","TLE_LINE1":"1 69258U 26117W   26164.58335648 -.00006968  00000-0 -31760-4 0  9990","TLE_LINE2":"2 69258  53.1586 260.9387 0001304  59.6130 324.3854 15.80890769  3585"},{"NORAD_CAT_ID":"69259","OBJECT_NAME":"STARLINK-37518","OBJECT_ID":"2026-117X","EPOCH":"2026-06-13T14:00:01.999872","TLE_LINE1":"1 69259U 26117X   26164.58335648 -.00054869  00000-0 -27572-3 0  9999","TLE_LINE2":"2 69259  53.1587 260.9541 0001200  96.2211 280.7675 15.80911421  3597"},{"NORAD_CAT_ID":"69260","OBJECT_NAME":"STARLINK-37478","OBJECT_ID":"2026-117Y","EPOCH":"2026-06-13T14:00:01.999872","TLE_LINE1":"1 69260U 26117Y   26164.58335648 -.00030345  00000-0 -15056-3 0  9998","TLE_LINE2":"2 69260  53.1591 260.9569 0001277  78.8033 296.9114 15.80897084  3591"},{"NORAD_CAT_ID":"69261","OBJECT_NAME":"STARLINK-37506","OBJECT_ID":"2026-117Z","EPOCH":"2026-06-13T14:00:01.999872","TLE_LINE1":"1 69261U 26117Z   26164.58335648 -.00035749  00000-0 -17801-3 0  9992","TLE_LINE2":"2 69261  53.1586 260.9507 0001143  78.8547 299.6277 15.80910376  3590"},{"NORAD_CAT_ID":"69262","OBJECT_NAME":"STARLINK-37503","OBJECT_ID":"2026-117AA","EPOCH":"2026-06-13T14:00:01.999872","TLE_LINE1":"1 69262U 26117AA  26164.58335648 -.00064320  00000-0 -32380-3 0  9999","TLE_LINE2":"2 69262  53.1589 260.9472 0001199 108.0769 271.8557 15.80936198  3591"},{"NORAD_CAT_ID":"69263","OBJECT_NAME":"STARLINK-37502","OBJECT_ID":"2026-117AB","EPOCH":"2026-06-13T14:00:01.999872","TLE_LINE1":"1 69263U 26117AB  26164.58335648 -.00097140  00000-0 -49262-3 0  9993","TLE_LINE2":"2 69263  53.1590 260.9406 0001009  83.2743 299.6023 15.80940271  3590"},{"NORAD_CAT_ID":"69264","OBJECT_NAME":"STARLINK-37486","OBJECT_ID":"2026-117AC","EPOCH":"2026-06-13T14:00:01.999872","TLE_LINE1":"1 69264U 26117AC  26164.58335648 -.00039338  00000-0 -19644-3 0  9990","TLE_LINE2":"2 69264  53.1582 260.9264 0001128  88.5918 301.2522 15.80897310  3597"},{"NORAD_CAT_ID":"69265","OBJECT_NAME":"STARLINK-37435","OBJECT_ID":"2026-117AD","EPOCH":"2026-06-13T14:00:01.999872","TLE_LINE1":"1 69265U 26117AD  26164.58335648 -.00065621  00000-0 -33054-3 0  9996","TLE_LINE2":"2 69265  53.1586 260.9432 0001139  97.9522 283.3820 15.80931851  3596"},{"NORAD_CAT_ID":"69266","OBJECT_NAME":"STARLINK-37464","OBJECT_ID":"2026-117AE","EPOCH":"2026-06-13T14:00:01.999872","TLE_LINE1":"1 69266U 26117AE  26164.58335648 -.00086289  00000-0 -41433-3 0  9990","TLE_LINE2":"2 69266  53.1580 260.9198 0001219  77.7624 314.4521 15.82065751  3591"},{"NORAD_CAT_ID":"69267","OBJECT_NAME":"KUIPER-00282","OBJECT_ID":"2026-118A","EPOCH":"2026-06-13T13:48:10.743840","TLE_LINE1":"1 69267U 26118A   26164.57512435  .00025092  00000-0  74071-3 0  9999","TLE_LINE2":"2 69267  51.8587  70.9635 0011984 167.3981 192.7306 15.34756604  3422"},{"NORAD_CAT_ID":"69268","OBJECT_NAME":"KUIPER-00383","OBJECT_ID":"2026-118B","EPOCH":"2026-06-13T13:43:50.689344","TLE_LINE1":"1 69268U 26118B   26164.57211446 -.00022517  00000-0 -64962-3 0  9997","TLE_LINE2":"2 69268  51.8593  70.9438 0010978 167.9775 192.1475 15.34659904  3426"},{"NORAD_CAT_ID":"69269","OBJECT_NAME":"KUIPER-00527","OBJECT_ID":"2026-118C","EPOCH":"2026-06-13T13:38:36.406752","TLE_LINE1":"1 69269U 26118C   26164.56847693  .00021264  00000-0  62477-3 0  9991","TLE_LINE2":"2 69269  51.8615  70.9230 0010242 163.2515 196.8811 15.35025359  3424"},{"NORAD_CAT_ID":"69270","OBJECT_NAME":"KUIPER-00562","OBJECT_ID":"2026-118D","EPOCH":"2026-06-13T13:03:11.956896","TLE_LINE1":"1 69270U 26118D   26164.54388839  .00026680  00000-0  69829-3 0  9998","TLE_LINE2":"2 69270  51.8730  70.7594 0001876 106.3620 253.7574 15.38534894  3424"},{"NORAD_CAT_ID":"69271","OBJECT_NAME":"KUIPER-00570","OBJECT_ID":"2026-118E","EPOCH":"2026-06-13T13:41:30.677280","TLE_LINE1":"1 69271U 26118E   26164.57049395  .00012980  00000-0  38225-3 0  9997","TLE_LINE2":"2 69271  51.8578  70.9327 0012077 171.6460 188.4729 15.35326931  3427"},{"NORAD_CAT_ID":"69272","OBJECT_NAME":"KUIPER-00572","OBJECT_ID":"2026-118F","EPOCH":"2026-06-13T13:25:26.554368","TLE_LINE1":"1 69272U 26118F   26164.55933512  .00023452  00000-0  64773-3 0  9992","TLE_LINE2":"2 69272  51.8675  70.8669 0007407 158.1874 201.9430 15.36923668  3425"},{"NORAD_CAT_ID":"69273","OBJECT_NAME":"KUIPER-00581","OBJECT_ID":"2026-118G","EPOCH":"2026-06-13T13:29:51.237312","TLE_LINE1":"1 69273U 26118G   26164.56239858  .00021954  00000-0  61412-3 0  9998","TLE_LINE2":"2 69273  51.8655  70.8868 0008882 161.0937 199.0380 15.36556257  3513"},{"NORAD_CAT_ID":"69274","OBJECT_NAME":"KUIPER-00584","OBJECT_ID":"2026-118H","EPOCH":"2026-06-13T13:44:32.146656","TLE_LINE1":"1 69274U 26118H   26164.57259429  .00019663  00000-0  57471-3 0  9990","TLE_LINE2":"2 69274  51.8609  70.9478 0011625 176.1354 183.9724 15.35227966  3425"},{"NORAD_CAT_ID":"69275","OBJECT_NAME":"KUIPER-00587","OBJECT_ID":"2026-118J","EPOCH":"2026-06-13T13:29:04.824960","TLE_LINE1":"1 69275U 26118J   26164.56186140  .00022849  00000-0  63776-3 0  9994","TLE_LINE2":"2 69275  51.8629  70.8818 0008138 164.2215 195.9026 15.36604806  3425"},{"NORAD_CAT_ID":"69276","OBJECT_NAME":"KUIPER-00590","OBJECT_ID":"2026-118K","EPOCH":"2026-06-13T13:13:21.660096","TLE_LINE1":"1 69276U 26118K   26164.55094514  .00024792  00000-0  66459-3 0  9997","TLE_LINE2":"2 69276  51.8692  70.8128 0004344 146.3122 213.8142 15.37831796  3423"},{"NORAD_CAT_ID":"69277","OBJECT_NAME":"KUIPER-00592","OBJECT_ID":"2026-118L","EPOCH":"2026-06-13T13:10:24.218688","TLE_LINE1":"1 69277U 26118L   26164.54889142  .00026429  00000-0  70227-3 0  9993","TLE_LINE2":"2 69277  51.8713  70.7982 0003667 125.4602 234.6728 15.38069398  3426"},{"NORAD_CAT_ID":"69278","OBJECT_NAME":"KUIPER-00593","OBJECT_ID":"2026-118M","EPOCH":"2026-06-13T13:11:13.568640","TLE_LINE1":"1 69278U 26118M   26164.54946260  .00028978  00000-0  77141-3 0  9992","TLE_LINE2":"2 69278  51.8721  70.8005 0004018 140.9302 219.1976 15.37962386  3480"}]}